#dP2021  3  5  6  0  0.00000000      96 __u+U ITR00 EXT  IAC
## 2147 453600.00000000   900.00000000 59278 0.2500000000000
+  117   C06C07C08C09C10C11C12C13C14C16C19C20C21C22C23C24C25
+        C26C27C28C29C30C32C33C34C35C36C37C38C39C40C41C42C43
+        C44C45C46E01E02E03E04E05E07E08E09E11E12E13E14E15E18
+        E19E21E24E25E26E27E30E31E33E36G01G02G03G04G05G06G07
+        G08G09G10G11G12G13G14G15G16G17G18G19G20G21G22G23G24
+        G25G26G27G28G29G30G31G32J01J02J03R01R02R03R04R05R07
+        R08R09R11R12R13R14R15R16R17R18R19R20R21R22R24  0  0
++        10 10 11  9  9  8  8  8 10  9  7  9 10 10  9 10  9
++         9  8  8 10  9  8  9  9  9  9 10 11 11 11  9  9 10
++         9  9  9  8  9  9  9  8  9  8  9  9  9  8  9  8  8
++         9  9  9  9  8  8  9  8  9  8  8  9  8  8  8  9  8
++         8  9  8  8  8  7  8  8  8  9  8  9  9  8  8  8  8
++         8  8  9  8  9  9  9  8 11  9 11  8  8  9  9  9  9
++         9  9 10  8  9  8  8 10  8  9  8 10  9 10 10  0  0
%c M  cc GPS ccc cccc cccc cccc cccc ccccc ccccc ccccc ccccc
%c cc cc ccc ccc cccc cccc cccc cccc ccccc ccccc ccccc ccccc
%f  0.0000000  0.000000000  0.00000000000  0.000000000000000
%f  0.0000000  0.000000000  0.00000000000  0.000000000000000
%i    0    0    0    0      0      0      0      0         0
%i    0    0    0    0      0      0      0      0         0
/* IAC                                ULTRA-RAPID PREDICTION
/* S/V CLOCKS ARE ALIGNED TO GNSS TIME                      
/* G:C1WC2W R:C1PC2P E:C1XC5X C:C2IC6I J:C1CC2S             
/* PCV:IGS14_2134 OL/AL:FES2004  NONE     YN ORB:CoN CLK:CoN
*  2021 03 06  0 45  0.00000000
PC06 -17083.952004  21688.405416  32181.789250    149.644389
PC07 -20956.797515  36896.026864   -464.478286   -389.201600
PC08  -5443.121318  28806.789931 -30028.560797   -904.385889
PC09   -502.999963  24727.317009  34440.456432    689.071993
PC10 -10305.356928  38978.452964 -12862.774397    -76.237704
PC11  -4000.711815 -16153.234664  22471.448926   -885.898222
PC12  15964.636665 -10128.470545  20557.855768    843.414529
PC13   5506.914446  37025.132376 -19033.027327    168.175395
PC14   5189.683633 -22224.369102 -15994.063712    327.860563
PC16 -12989.713132  22309.232801  33396.648079   -721.889986
PC19   3885.162771  17639.166036  21304.821644    751.040512
PC20 -12237.228915  23228.851466   9515.140634   -924.352682
PC21  21838.733346 -15100.233310   8580.120583   -869.766967
PC22  18217.636230   1696.802817  21069.624194   -904.443654
PC23 -17280.599227 -12521.602345  17982.810150   -876.418991
PC24   3379.738888 -23778.612462 -14247.634998   -775.261112
PC25 -10963.054959 -25467.140344   3261.981623   -952.250229
PC26  13837.775280  -9140.431699 -22457.430329    939.554676
PC27 -23518.859276   4521.195334 -14321.905630    493.855323
PC28 -26522.988092  -8257.941348   2676.551365   -101.901786
PC29  14551.926755  15599.790614 -17998.774731    361.054406
PC30  -6745.617005  14695.250546 -22743.866870    450.087668
PC32 -21720.687829  15299.634287  -8531.679438   -906.121708
PC33  -3928.874178 -17661.169324 -21232.628181   -950.794733
PC34   6070.302906 -14915.603935  22786.236032   -725.584258
PC35  26729.821492   7530.603215  -2961.337199   -388.285094
PC36  10154.552959  25822.972907  -2924.284367   -745.844371
PC37 -14428.122847   7836.546702  22574.195760   -872.175424
PC38  -4470.284337  31798.359719 -27237.383753    134.017469
PC39 -11904.162389  23013.398694  33249.110436     29.109482
PC40 -17089.474729  36585.190695 -12389.094126    138.011320
PC41 -18101.964680  -1883.942838 -21101.487684   -930.730893
PC42  12768.430531 -23174.193830  -8805.021310   -916.344168
PC43 -13961.033694 -15854.530590  18215.250939   -626.415603
PC44  23543.811844  -5213.517919  14072.728414     71.081909
PC45  17224.729007  12405.564153 -18104.076436    379.043796
PC46  -2637.866805  24190.320310  13625.594829    376.279933
PE01  -8395.760792 -22108.458801  17805.569654  -1059.451384
PE02   8480.136179  21990.163701 -17899.260244    202.958212
PE03  13904.930443  12229.610562  23088.784787   -405.678379
PE04 -27235.824801   1542.504541 -11482.888537   -722.915312
PE05  -7776.755649  19020.045041  21307.374818   -299.399585
PE07  24713.166257 -14647.567914  -7111.622208   -509.042844
PE08  27291.607658  -1972.138727  11277.958496   6037.542632
PE09 -24572.266783  14819.891113   7294.427144   5744.412944
PE11 -15293.822121   7913.370441 -24073.447850   6241.688673
PE12 -25013.908975  -9717.208842 -12460.495296   5324.667137
PE13  15580.488829  -7535.041892  24025.084828    413.104177
PE14 -26296.919028  11747.165254 -11341.148681  -1351.810731
PE15  25039.518731   9634.695745  12527.690000    826.132481
PE18  25677.907393  -2349.781665    553.070695  -1478.052704
PE19 -11583.444414 -13367.679014 -23728.638686    219.606219
PE21   4029.165664 -29303.266938   1258.776172   -651.988641
PE24 -14941.312715  19039.159529  17006.358419   -777.329342
PE25  -4144.308775  29282.617971  -1084.764655   -527.802338
PE26  -3563.044742 -20655.710549  20908.365144   2075.313607
PE27  14590.987601 -19743.570998 -16550.007519     16.554805
PE30  16418.998777   2388.086510 -24525.660507   3130.274847
PE31 -16513.693443  -1379.994808  24529.197291   -478.894514
PE33 -19734.927810 -21121.430995   6351.624341   -466.260497
PE36   3041.245106  20252.267463 -21365.983086    432.132557
PG01  20095.256171  11225.279709  13305.568647    747.758082
PG02 -12318.531920 -22114.328618   8637.331859   -583.258514
PG03  15586.217339    557.241516  21405.758099   -100.104182
PG04  25315.467283   2451.002415   7755.110757   -184.399347
PG05  -6967.943225 -18406.462763 -17901.326449    -35.417742
PG06   -927.280879 -19923.400232  17576.515281     -0.497448
PG07  16166.773447  -3170.746914 -20588.831524     80.333156
PG08  21567.734229   6354.334417 -14369.533530    -12.640219
PG09  25431.813696  -6869.955083  -3536.471946   -328.580459
PG10 -11632.663487  23446.209242  -3457.802367    -74.928317
PG11  24511.683802   9536.014474   1385.162016     -6.969101
PG12 -13667.541986  -5704.933433  21795.481703     -9.889357
PG13 -12685.318745 -13124.870147 -19473.246628    104.461355
PG14  13533.314636 -22362.978508  -4690.940604     99.612060
PG15 -22392.489181  -4826.011414 -14092.510710   -165.108549
PG16   2973.301262  20075.760980 -17118.071721   -289.625393
PG17  14450.983636 -13489.777005  18164.890558    404.846293
PG18 -13702.481187   6761.798385 -21733.805332    349.704367
PG19   6151.119834 -14433.274933  21131.083923    -30.165384
PG20 -14970.870239  15975.273643 -14896.340234    524.390568
PG21  21001.801396  15433.290263   6949.646634    100.804752
PG22  13098.902080  10397.062965  20861.686092   -666.515493
PG23 -15884.331834  16508.327031 -13424.097616    118.065348
PG24 -21105.897563 -14235.710422   7999.652827      1.479780
PG25 -16951.026431   9806.721907  17551.508728     93.122858
PG26  -2723.774038  25148.660793  -7691.592573     53.974205
PG27  10121.232056  12891.692810 -21139.216341    -88.508670
PG28  12559.843443 -23467.685238   -998.321786    606.422546
PG29 -25871.874001   4693.074011  -3946.267034   -306.577897
PG30   7249.641826 -15258.846930 -20399.602063   -394.184897
PG31   2536.023348  21245.929129  15350.844354   -103.871386
PG32 -12292.455839  14948.653771  18214.281931     20.566144
PJ01 -28972.202288  30538.924446   7394.620509   -352.661649
PJ02 -28064.210267  25482.900426  23322.878867      2.864078
PJ03 -30696.865635  16017.188605 -19453.214561     -1.379073
PR01 -15359.835316   -445.342217 -20361.344378     75.975351
PR02 -21184.657564  13752.277308  -3295.259389    469.576109
PR03 -12550.221500  17516.349680  13651.864501     31.891047
PR04   2859.907682  11187.408411  22772.006951     76.643578
PR05  16786.062919  -1277.836404  19185.062545     67.640144
PR07  12194.992571 -17453.559394 -14043.297562    -42.509224
PR08  -2924.355519 -11251.955689 -22650.821153    -57.726350
PR09   9257.180267 -10316.858460 -21385.994700    -18.554830
PR11  -6843.002205 -23356.541088   7631.155283      2.591165
PR12 -11223.064429  -9311.406762  20955.796793    210.207312
PR13  -9125.326827   9808.178469  21684.228571    -51.581111
PR14  -1608.832897  23663.759955   9404.517945     61.718864
PR15   6674.543462  23287.488581  -7965.434115    105.089391
PR16  11625.379841   7896.496098 -21283.089988    -12.092449
PR17  -2637.093756  10326.499328 -23161.376127    405.516632
PR18  14171.702569  14020.192075 -15933.043883     68.809297
PR19  22901.583471  11192.466293   -995.092180   -134.556579
PR20  18747.805432    300.300098  17331.126973    -44.562485
PR21   1376.387763 -10745.986319  23097.875199   -192.268527
PR22 -14911.350878 -14021.952432  15141.995068   -101.113885
PR24 -18411.040775    730.291497 -17622.999120     33.922309
EOF
